OBJECT_NAME,OBJECT_ID,EPOCH,MEAN_MOTION,ECCENTRICITY,INCLINATION,RA_OF_ASC_NODE,ARG_OF_PERICENTER,MEAN_ANOMALY,EPHEMERIS_TYPE,CLASSIFICATION_TYPE,NORAD_CAT_ID,ELEMENT_SET_NO,REV_AT_EPOCH,BSTAR,MEAN_MOTION_DOT,MEAN_MOTION_DDOT
PVSAT,2022-065A,2026-07-22T15:19:53.967648,14.59561283,.0008017,98.2331,342.7499,267.0034,93.0249,0,U,52894,999,21752,.49613217E-4,.189E-5,0
KSLV-II DUMMY,2022-065B,2026-07-22T20:15:48.109248,14.58695898,.0007028,98.2391,343.3919,288.5928,71.4507,0,U,52895,999,21755,.14963653E-4,.23E-6,0
STEP CUBE LAB-II,2022-065D,2026-07-22T21:32:31.000992,14.63350570,.00072092,98.2273,347.6989,274.0986,85.9392,0,U,52897,999,21672,.13596189E-3,.654E-5,0
RANDEV,2022-065E,2026-07-22T21:20:26.592288,14.63738798,.00065494,98.2260,348.0580,274.5491,85.4963,0,U,52898,999,21647,.10520994E-3,.5E-5,0
SNUGLITE-II,2022-065F,2026-07-22T15:07:52.217472,14.64403354,.0006134,98.2246,348.4076,272.4841,87.5659,0,U,52899,999,21618,.14013557E-3,.692E-5,0
MIMAN,2022-065G,2026-07-22T08:48:03.146112,14.61876479,.00062876,98.2306,345.6809,277.0565,82.9921,0,U,52900,999,21558,.84810284E-4,.376E-5,0
CMS-02 (GSAT-24),2022-067A,2026-07-22T21:58:55.223616,1.00272655,.00007538,0.0527,247.2192,122.3515,343.8084,0,U,52903,999,1496,0,-.161E-5,0
MEASAT 3D,2022-067B,2026-07-22T22:01:17.496768,1.00272052,.00002844,0.0612,291.1984,185.0355,246.2398,0,U,52904,999,1500,0,-.237E-5,0
YAOGAN-35 02A,2022-068A,2026-07-22T21:24:20.051136,15.24570157,.00099998,34.9906,273.4984,36.9672,323.1731,0,U,52907,999,22734,.26114625E-3,.657E-4,0
YAOGAN-35 02B,2022-068B,2026-07-22T23:49:27.889824,15.66022218,.00047296,34.9930,178.7020,233.6098,126.4194,0,U,52908,999,22830,.10415027E-2,.111854E-2,0
GAOFEN-12 03,2022-069A,2026-07-22T22:50:40.217568,14.80082920,.00022966,97.8228,90.9127,64.4939,295.6511,0,U,52912,999,21990,.52111994E-4,.344E-5,0
SES-22,2022-071A,2026-07-22T17:30:15.249888,1.00269915,.00013506,0.0337,271.1148,192.3019,320.6119,0,U,52933,999,787,0,.109E-5,0
DS-EO,2022-072A,2026-07-22T18:41:47.814432,15.14093371,.00028664,9.9937,277.4397,118.6466,241.4038,0,U,52935,999,22391,.18812965E-3,.4351E-4,0
POEM,2022-072E,2026-07-22T11:33:27.613440,15.24432208,.00231316,9.9504,162.3011,359.8568,0.1640,0,U,52939,999,22490,.24926353E-3,.7321E-4,0
WFOV (USA 332),2022-073A,2026-07-22T22:09:16.731648,1.00274066,.00008739,3.7999,78.0752,180.7481,133.4736,0,U,52940,999,1472,0,-.361E-5,0
COSMOS 2557 [GLONASS-K],2022-075A,2026-07-20T21:29:46.401216,2.13102143,.00108276,64.2766,313.2973,270.8513,89.0451,0,U,52984,999,3143,0,-.88E-6,0
STARLINK-4260,2022-076A,2026-07-22T07:13:44.229504,15.33569943,.00012065,53.1600,205.2144,76.5491,283.5646,0,U,52986,999,22322,-.93061391E-4,-.3434E-4,0
STARLINK-4259,2022-076B,2026-07-22T22:00:01.999584,15.29324646,.0001233,53.1587,215.1025,98.0021,228.2098,0,U,52987,999,579,.213023E-2,.61565E-3,0
STARLINK-4291,2022-076C,2026-07-22T17:32:46.989888,15.33553985,.00010698,53.1590,202.9609,84.6748,275.4376,0,U,52988,999,22329,.8965996E-5,-.78E-6,0
STARLINK-4293,2022-076D,2026-07-22T22:00:01.999584,15.61086641,.00017221,53.2169,196.3177,92.9197,305.3695,0,U,52989,999,591,.39951854E-2,.357939E-2,0
STARLINK-4286,2022-076E,2026-07-22T07:52:23.265984,15.33556678,.0001413,53.1610,215.0405,76.7086,283.4074,0,U,52990,999,22309,.93751625E-4,.2712E-4,0
STARLINK-4285,2022-076F,2026-07-22T10:58:42.230208,15.33557412,.00014114,53.1601,214.4641,80.9342,279.1820,0,U,52991,999,22311,.5190292E-4,.1335E-4,0
STARLINK-4269,2022-076G,2026-07-22T22:00:01.999584,15.31686417,.00012964,53.1597,215.1594,100.8329,274.2961,0,U,52992,999,574,.26062042E-2,.8136E-3,0
STARLINK-4256,2022-076J,2026-07-22T07:33:48.248928,15.34388308,.0001055,53.1598,204.7113,87.6396,272.4728,0,U,52994,999,22323,.32088337E-4,.708E-5,0
STARLINK-4296,2022-076K,2026-07-22T07:00:30.786336,15.35406110,.00011167,53.1606,205.3527,68.8442,291.2680,0,U,52995,999,22322,.64091603E-4,.1856E-4,0
STARLINK-4295,2022-076L,2026-07-22T17:27:27.850752,15.35401972,.00011942,53.1609,203.7613,81.3447,278.7691,0,U,52996,999,22328,.36476807E-4,.892E-5,0
STARLINK-4254,2022-076N,2026-07-22T07:05:07.713024,15.33555426,.00012294,53.1599,204.6994,76.3074,283.8066,0,U,52998,999,22323,.41046429E-4,.978E-5,0
STARLINK-4217,2022-076P,2026-07-22T06:57:29.405952,15.34401279,.00011532,53.1596,204.8313,74.6309,285.4821,0,U,52999,999,22323,.10034929E-3,.3016E-4,0
STARLINK-4194,2022-076Q,2026-07-22T07:41:28.486176,15.35401741,.00014778,53.1609,204.8613,65.4162,294.6995,0,U,53000,999,22323,.2966065E-4,.654E-5,0
STARLINK-4190,2022-076R,2026-07-22T20:43:06.462336,15.33536310,.0001735,53.1598,202.7530,101.3780,258.7417,0,U,53001,999,22331,.18958235E-3,.5864E-4,0
