{"epoch":1784799577,"count":18318,"objects":[{"id":"52894","name":"PVSAT","type":"PAYLOAD","l1":"1 52894U 22065A   26203.63881907  .00000189  00000-0  49613-4 0  9993","l2":"2 52894  98.2331 342.7499 0008017 267.0034  93.0249 14.59561283217520"},{"id":"52895","name":"KSLV-II DUMMY","type":"PAYLOAD","l1":"1 52895U 22065B   26203.84430682  .00000023  00000-0  14964-4 0  9995","l2":"2 52895  98.2391 343.3919 0007028 288.5928  71.4507 14.58695898217551"},{"id":"52897","name":"STEP CUBE LAB-II","type":"PAYLOAD","l1":"1 52897U 22065D   26203.89758103  .00000654  00000-0  13596-3 0  9992","l2":"2 52897  98.2273 347.6989 0007209 274.0986  85.9392 14.63350570216722"},{"id":"52898","name":"RANDEV","type":"PAYLOAD","l1":"1 52898U 22065E   26203.88919667  .00000500  00000-0  10521-3 0  9991","l2":"2 52898  98.2260 348.0580 0006549 274.5491  85.4963 14.63738798216476"},{"id":"52899","name":"SNUGLITE-II","type":"PAYLOAD","l1":"1 52899U 22065F   26203.63046548  .00000692  00000-0  14014-3 0  9997","l2":"2 52899  98.2246 348.4076 0006134 272.4841  87.5659 14.64403354216182"},{"id":"52900","name":"MIMAN","type":"PAYLOAD","l1":"1 52900U 22065G   26203.36670308  .00000376  00000-0  84810-4 0  9998","l2":"2 52900  98.2306 345.6809 0006288 277.0565  82.9921 14.61876479215582"},{"id":"52903","name":"CMS-02","type":"PAYLOAD","l1":"1 52903U 22067A   26203.91591694 -.00000161  00000-0  00000-0 0  9992","l2":"2 52903   0.0527 247.2192 0000754 122.3515 343.8084  1.00272655 14965"},{"id":"52904","name":"MEASAT 3D","type":"PAYLOAD","l1":"1 52904U 22067B   26203.91756362 -.00000237  00000-0  00000-0 0  9992","l2":"2 52904   0.0612 291.1984 0000284 185.0355 246.2398  1.00272052 15005"},{"id":"52907","name":"YAOGAN-35 02A","type":"PAYLOAD","l1":"1 52907U 22068A   26203.89189874  .00006570  00000-0  26115-3 0  9994","l2":"2 52907  34.9906 273.4984 0010000  36.9672 323.1731 15.24570157227342"},{"id":"52908","name":"YAOGAN-35 02B","type":"PAYLOAD","l1":"1 52908U 22068B   26203.99268391  .00111854  00000-0  10415-2 0  9995","l2":"2 52908  34.9930 178.7020 0004730 233.6098 126.4194 15.66022218228309"},{"id":"52912","name":"GAOFEN 12 (03)","type":"PAYLOAD","l1":"1 52912U 22069A   26203.95185437  .00000344  00000-0  52112-4 0  9999","l2":"2 52912  97.8228  90.9127 0002297  64.4939 295.6511 14.80082920219904"},{"id":"52933","name":"SES 22","type":"PAYLOAD","l1":"1 52933U 22071A   26203.72934317  .00000109  00000-0  00000-0 0  9993","l2":"2 52933   0.0337 271.1148 0001351 192.3019 320.6119  1.00269915  7873"},{"id":"52935","name":"DS-EO","type":"PAYLOAD","l1":"1 52935U 22072A   26203.77902563  .00004351  00000-0  18813-3 0  9996","l2":"2 52935   9.9937 277.4397 0002866 118.6466 241.4038 15.14093371223919"},{"id":"52939","name":"POEM","type":"PAYLOAD","l1":"1 52939U 22072E   26203.48156960  .00007321  00000-0  24926-3 0  9992","l2":"2 52939   9.9504 162.3011 0023132 359.8568   0.1640 15.24432208224905"},{"id":"52940","name":"WFOV (USA 332)","type":"PAYLOAD","l1":"1 52940U 22073A   26203.92311032 -.00000361  00000-0  00000-0 0  9999","l2":"2 52940   3.7999  78.0752 0000874 180.7481 133.4736  1.00274066 14723"},{"id":"52984","name":"COSMOS 2557 (GLONASS)","type":"PAYLOAD","l1":"1 52984U 22075A   26201.89567594 -.00000088  00000-0  00000-0 0  9995","l2":"2 52984  64.2766 313.2973 0010828 270.8513  89.0451  2.13102143 31439"},{"id":"52986","name":"STARLINK-4260","type":"PAYLOAD","l1":"1 52986U 22076A   26203.30120636 -.00003434  00000-0 -93061-4 0  9990","l2":"2 52986  53.1600 205.2144 0001206  76.5491 283.5646 15.33569943223229"},{"id":"52987","name":"STARLINK-4259","type":"PAYLOAD","l1":"1 52987U 22076B   26203.91668981  .00061565  00000-0  21302-2 0  9992","l2":"2 52987  53.1587 215.1025 0001233  98.0021 228.2098 15.29324646  5791"},{"id":"52988","name":"STARLINK-4291","type":"PAYLOAD","l1":"1 52988U 22076C   26203.73109942 -.00000078  00000-0  89660-5 0  9997","l2":"2 52988  53.1590 202.9609 0001070  84.6748 275.4376 15.33553985223299"},{"id":"52989","name":"STARLINK-4293","type":"PAYLOAD","l1":"1 52989U 22076D   26203.91668981  .00357939  00000-0  39952-2 0  9997","l2":"2 52989  53.2169 196.3177 0001722  92.9197 305.3695 15.61086641  5918"},{"id":"52990","name":"STARLINK-4286","type":"PAYLOAD","l1":"1 52990U 22076E   26203.32804706  .00002712  00000-0  93752-4 0  9997","l2":"2 52990  53.1610 215.0405 0001413  76.7086 283.4074 15.33556678223096"},{"id":"52991","name":"STARLINK-4285","type":"PAYLOAD","l1":"1 52991U 22076F   26203.45743322  .00001335  00000-0  51903-4 0  9990","l2":"2 52991  53.1601 214.4641 0001411  80.9342 279.1820 15.33557412223113"},{"id":"52992","name":"STARLINK-4269","type":"PAYLOAD","l1":"1 52992U 22076G   26203.91668981  .00081360  00000-0  26062-2 0  9991","l2":"2 52992  53.1597 215.1594 0001296 100.8329 274.2961 15.31686417  5746"},{"id":"52994","name":"STARLINK-4256","type":"PAYLOAD","l1":"1 52994U 22076J   26203.31514177  .00000708  00000-0  32088-4 0  9998","l2":"2 52994  53.1598 204.7113 0001055  87.6396 272.4728 15.34388308223237"},{"id":"52995","name":"STARLINK-4296","type":"PAYLOAD","l1":"1 52995U 22076K   26203.29202299  .00001856  00000-0  64092-4 0  9990","l2":"2 52995  53.1606 205.3527 0001117  68.8442 291.2680 15.35406110223224"},{"id":"52996","name":"STARLINK-4295","type":"PAYLOAD","l1":"1 52996U 22076L   26203.72740568  .00000892  00000-0  36477-4 0  9990","l2":"2 52996  53.1609 203.7613 0001194  81.3447 278.7691 15.35401972223285"},{"id":"52998","name":"STARLINK-4254","type":"PAYLOAD","l1":"1 52998U 22076N   26203.29522816  .00000978  00000-0  41046-4 0  9991","l2":"2 52998  53.1599 204.6994 0001229  76.3074 283.8066 15.33555426223236"},{"id":"52999","name":"STARLINK-4217","type":"PAYLOAD","l1":"1 52999U 22076P   26203.28992368  .00003016  00000-0  10035-3 0  9993","l2":"2 52999  53.1596 204.8313 0001153  74.6309 285.4821 15.34401279223233"},{"id":"53000","name":"STARLINK-4194","type":"PAYLOAD","l1":"1 53000U 22076Q   26203.32046859  .00000654  00000-0  29661-4 0  9998","l2":"2 53000  53.1609 204.8613 0001478  65.4162 294.6995 15.35401741223239"},{"id":"53001","name":"STARLINK-4190","type":"PAYLOAD","l1":"1 53001U 22076R   26203.86326924  .00005864  00000-0  18958-3 0  9996","l2":"2 53001  53.1598 202.7530 0001735 101.3780 258.7417 15.33536310223312"}]}